{
  "type": "FeatureCollection",
  "features": [
    {
      "type": "Feature",
      "properties": {
        "norad_id": 66899,
        "name": "STARLINK-36064",
        "group": "last-30-days",
        "lat": -52.81712616387959,
        "lon": -42.10340810056236,
        "alt_km": 352.3847176692907,
        "timestamp": "2025-12-19T14:48:34.965961+00:00",
        "meta_object_name": "STARLINK-36064",
        "meta_object_id": "2025-283X",
        "meta_epoch": "2025-12-19T06:00:02.000160",
        "meta_mean_motion": 15.75539349,
        "meta_eccentricity": 0.00011193,
        "meta_inclination": 53.1557,
        "meta_ra_of_asc_node": 41.0244,
        "meta_arg_of_pericenter": 82.594,
        "meta_mean_anomaly": 270.4149,
        "meta_ephemeris_type": 0,
        "meta_classification_type": "U",
        "meta_norad_cat_id": 66899,
        "meta_element_set_no": 999,
        "meta_rev_at_epoch": 341,
        "meta_bstar": -0.011374159,
        "meta_mean_motion_dot": -0.01547439,
        "meta_mean_motion_ddot": 0,
        "tle_line1": "1 66899U 25283X   25353.25002315 -.01547439  00000+0 -11374-1 0  9995",
        "tle_line2": "2 66899  53.1557  41.0244 0001119  82.5940 270.4149 15.75539349  3417"
      },
      "geometry": {
        "type": "Point",
        "coordinates": [
          -42.10340810056236,
          -52.81712616387959
        ]
      }
    },
    {
      "type": "Feature",
      "properties": {
        "norad_id": 66900,
        "name": "STARLINK-36074",
        "group": "last-30-days",
        "lat": -52.54385904478539,
        "lon": -38.97341932736499,
        "alt_km": 352.38409736903213,
        "timestamp": "2025-12-19T14:48:34.965973+00:00",
        "meta_object_name": "STARLINK-36074",
        "meta_object_id": "2025-283Y",
        "meta_epoch": "2025-12-19T06:00:02.000160",
        "meta_mean_motion": 15.75368433,
        "meta_eccentricity": 7.631e-05,
        "meta_inclination": 53.1561,
        "meta_ra_of_asc_node": 41.02,
        "meta_arg_of_pericenter": 104.6018,
        "meta_mean_anomaly": 250.499,
        "meta_ephemeris_type": 0,
        "meta_classification_type": "U",
        "meta_norad_cat_id": 66900,
        "meta_element_set_no": 999,
        "meta_rev_at_epoch": 347,
        "meta_bstar": -0.010698265,
        "meta_mean_motion_dot": -0.01456531,
        "meta_mean_motion_ddot": 0,
        "tle_line1": "1 66900U 25283Y   25353.25002315 -.01456531  00000+0 -10698-1 0  9998",
        "tle_line2": "2 66900  53.1561  41.0200 0000763 104.6018 250.4990 15.75368433  3475"
      },
      "geometry": {
        "type": "Point",
        "coordinates": [
          -38.97341932736499,
          -52.54385904478539
        ]
      }
    },
    {
      "type": "Feature",
      "properties": {
        "norad_id": 66901,
        "name": "STARLINK-36043",
        "group": "last-30-days",
        "lat": -52.187984013340994,
        "lon": -35.88454774291774,
        "alt_km": 352.46520351565414,
        "timestamp": "2025-12-19T14:48:34.965983+00:00",
        "meta_object_name": "STARLINK-36043",
        "meta_object_id": "2025-283Z",
        "meta_epoch": "2025-12-19T06:00:02.000160",
        "meta_mean_motion": 15.75230648,
        "meta_eccentricity": 8.397e-05,
        "meta_inclination": 53.156,
        "meta_ra_of_asc_node": 41.0156,
        "meta_arg_of_pericenter": 94.9396,
        "meta_mean_anomaly": 262.1923,
        "meta_ephemeris_type": 0,
        "meta_classification_type": "U",
        "meta_norad_cat_id": 66901,
        "meta_element_set_no": 999,
        "meta_rev_at_epoch": 347,
        "meta_bstar": -0.0096678406,
        "meta_mean_motion_dot": -0.01324121,
        "meta_mean_motion_ddot": 0,
        "tle_line1": "1 66901U 25283Z   25353.25002315 -.01324121  00000+0 -96678-2 0  9991",
        "tle_line2": "2 66901  53.1560  41.0156 0000839  94.9396 262.1923 15.75230648  3471"
      },
      "geometry": {
        "type": "Point",
        "coordinates": [
          -35.88454774291774,
          -52.187984013340994
        ]
      }
    },
    {
      "type": "Feature",
      "properties": {
        "norad_id": 66902,
        "name": "STARLINK-35983",
        "group": "last-30-days",
        "lat": -51.75422843238682,
        "lon": -32.858215247416716,
        "alt_km": 352.70233876717884,
        "timestamp": "2025-12-19T14:48:34.965995+00:00",
        "meta_object_name": "STARLINK-35983",
        "meta_object_id": "2025-283AA",
        "meta_epoch": "2025-12-19T06:00:02.000160",
        "meta_mean_motion": 15.75017596,
        "meta_eccentricity": 0.00010566,
        "meta_inclination": 53.1562,
        "meta_ra_of_asc_node": 41.0114,
        "meta_arg_of_pericenter": 100.1365,
        "meta_mean_anomaly": 259.0793,
        "meta_ephemeris_type": 0,
        "meta_classification_type": "U",
        "meta_norad_cat_id": 66902,
        "meta_element_set_no": 999,
        "meta_rev_at_epoch": 347,
        "meta_bstar": -0.0081307455,
        "meta_mean_motion_dot": -0.01105609,
        "meta_mean_motion_ddot": 0,
        "tle_line1": "1 66902U 25283AA  25353.25002315 -.01105609  00000+0 -81307-2 0  9993",
        "tle_line2": "2 66902  53.1562  41.0114 0001056 100.1365 259.0793 15.75017596  3471"
      },
      "geometry": {
        "type": "Point",
        "coordinates": [
          -32.858215247416716,
          -51.75422843238682
        ]
      }
    },
    {
      "type": "Feature",
      "properties": {
        "norad_id": 66903,
        "name": "STARLINK-36077",
        "group": "last-30-days",
        "lat": -51.2434887084958,
        "lon": -29.893119231001528,
        "alt_km": 352.6910928368443,
        "timestamp": "2025-12-19T14:48:34.966006+00:00",
        "meta_object_name": "STARLINK-36077",
        "meta_object_id": "2025-283AB",
        "meta_epoch": "2025-12-19T06:00:02.000160",
        "meta_mean_motion": 15.74949102,
        "meta_eccentricity": 8.996e-05,
        "meta_inclination": 53.156,
        "meta_ra_of_asc_node": 41.0076,
        "meta_arg_of_pericenter": 100.9646,
        "meta_mean_anomaly": 260.245,
        "meta_ephemeris_type": 0,
        "meta_classification_type": "U",
        "meta_norad_cat_id": 66903,
        "meta_element_set_no": 999,
        "meta_rev_at_epoch": 347,
        "meta_bstar": -0.0078956567,
        "meta_mean_motion_dot": -0.01073906,
        "meta_mean_motion_ddot": 0,
        "tle_line1": "1 66903U 25283AB  25353.25002315 -.01073906  00000+0 -78957-2 0  9995",
        "tle_line2": "2 66903  53.1560  41.0076 0000899 100.9646 260.2450 15.74949102  3471"
      },
      "geometry": {
        "type": "Point",
        "coordinates": [
          -29.893119231001528,
          -51.2434887084958
        ]
      }
    },
    {
      "type": "Feature",
      "properties": {
        "norad_id": 66904,
        "name": "STARLINK-36059",
        "group": "last-30-days",
        "lat": -50.66400094446708,
        "lon": -27.0198247078282,
        "alt_km": 352.49559695607604,
        "timestamp": "2025-12-19T14:48:34.966016+00:00",
        "meta_object_name": "STARLINK-36059",
        "meta_object_id": "2025-283AC",
        "meta_epoch": "2025-12-19T06:00:02.000160",
        "meta_mean_motion": 15.74770175,
        "meta_eccentricity": 7.794e-05,
        "meta_inclination": 53.1558,
        "meta_ra_of_asc_node": 41.0031,
        "meta_arg_of_pericenter": 92.2123,
        "meta_mean_anomaly": 271.0096,
        "meta_ephemeris_type": 0,
        "meta_classification_type": "U",
        "meta_norad_cat_id": 66904,
        "meta_element_set_no": 999,
        "meta_rev_at_epoch": 347,
        "meta_bstar": -0.0060978347,
        "meta_mean_motion_dot": -0.00831103,
        "meta_mean_motion_ddot": 0,
        "tle_line1": "1 66904U 25283AC  25353.25002315 -.00831103  00000+0 -60978-2 0  9990",
        "tle_line2": "2 66904  53.1558  41.0031 0000779  92.2123 271.0096 15.74770175  3478"
      },
      "geometry": {
        "type": "Point",
        "coordinates": [
          -27.0198247078282,
          -50.66400094446708
        ]
      }
    },
    {
      "type": "Feature",
      "properties": {
        "norad_id": 66905,
        "name": "STARLINK-36075",
        "group": "last-30-days",
        "lat": -50.01421599241883,
        "lon": -24.214198470320504,
        "alt_km": 352.52698013154713,
        "timestamp": "2025-12-19T14:48:34.966026+00:00",
        "meta_object_name": "STARLINK-36075",
        "meta_object_id": "2025-283AD",
        "meta_epoch": "2025-12-19T06:00:02.000160",
        "meta_mean_motion": 15.74707649,
        "meta_eccentricity": 7.757e-05,
        "meta_inclination": 53.1559,
        "meta_ra_of_asc_node": 40.999,
        "meta_arg_of_pericenter": 93.9253,
        "meta_mean_anomaly": 271.2615,
        "meta_ephemeris_type": 0,
        "meta_classification_type": "U",
        "meta_norad_cat_id": 66905,
        "meta_element_set_no": 999,
        "meta_rev_at_epoch": 347,
        "meta_bstar": -0.005714876,
        "meta_mean_motion_dot": -0.00781451,
        "meta_mean_motion_ddot": 0,
        "tle_line1": "1 66905U 25283AD  25353.25002315 -.00781451  00000+0 -57149-2 0  9997",
        "tle_line2": "2 66905  53.1559  40.9990 0000775  93.9253 271.2615 15.74707649  3475"
      },
      "geometry": {
        "type": "Point",
        "coordinates": [
          -24.214198470320504,
          -50.01421599241883
        ]
      }
    }
  ]
}